[{"norad_id":"45426","company":"ONEWEB","tle_line2":"2 45426  87.8883 119.0250 0002278 109.2254 250.9120 13.11413100238293","launch_date":"2020-03-21","type":"LEO","tle_line1":"1 45426U 20020C   25041.76835425 -.00000514  00000+0 -14869-2 0  9998","satellite_name":"ONEWEB-0080"},{"norad_id":"45427","company":"ONEWEB","tle_line2":"2 45427  87.8888 119.0302 0001916 103.6653 256.4689 13.11415397238253","launch_date":"2020-03-21","type":"LEO","tle_line1":"1 45427U 20020D   25041.70900449 -.00000359  00000+0 -10495-2 0  9990","satellite_name":"ONEWEB-0090"},{"norad_id":"45428","company":"ONEWEB","tle_line2":"2 45428  87.8882 119.0121 0001902 105.4377 254.6962 13.11415194238210","launch_date":"2020-03-21","type":"LEO","tle_line1":"1 45428U 20020E   25041.74110551  .00000504  00000+0  13872-2 0  9994","satellite_name":"ONEWEB-0061"},{"norad_id":"45429","company":"ONEWEB","tle_line2":"2 45429  87.8884 119.0351 0001813 111.4167 248.7154 13.11417786238321","launch_date":"2020-03-21","type":"LEO","tle_line1":"1 45429U 20020F   25041.72259059  .00000188  00000+0  49575-3 0  9998","satellite_name":"ONEWEB-0081"},{"norad_id":"45430","company":"ONEWEB","tle_line2":"2 45430  87.8886 119.0271 0001979 102.1516 257.9833 13.11415608238253","launch_date":"2020-03-21","type":"LEO","tle_line1":"1 45430U 20020G   25041.71239687 -.00000279  00000+0 -82323-3 0  9995","satellite_name":"ONEWEB-0069"},{"norad_id":"45431","company":"ONEWEB","tle_line2":"2 45431  87.8889 119.0397 0001906 101.9589 258.1753 13.11412940238242","launch_date":"2020-03-21","type":"LEO","tle_line1":"1 45431U 20020H   25041.75988073 -.00000266  00000+0 -78649-3 0  9992","satellite_name":"ONEWEB-0031"},{"norad_id":"45432","company":"ONEWEB","tle_line2":"2 45432  87.9055 103.6793 0001916  88.7673 271.3678 13.17650240241694","launch_date":"2020-03-21","type":"LEO","tle_line1":"1 45432U 20020J   25042.15156825  .00000110  00000+0  25001-3 0  9990","satellite_name":"ONEWEB-0027"},{"norad_id":"45433","company":"ONEWEB","tle_line2":"2 45433  87.8884 119.0388 0001988  99.4844 260.6509 13.11412529238277","launch_date":"2020-03-21","type":"LEO","tle_line1":"1 45433U 20020K   25041.75819159 -.00000146  00000+0 -44684-3 0  9991","satellite_name":"ONEWEB-0064"}]